[{"OBJECT_NAME":"STARLINK-3879","OBJECT_ID":"2022-049Y","EPOCH":"2026-03-09T05:58:47.803296","MEAN_MOTION":15.08840536,"ECCENTRICITY":0.00015349,"INCLINATION":53.2173,"RA_OF_ASC_NODE":61.095,"ARG_OF_PERICENTER":87.6125,"MEAN_ANOMALY":272.5042,"EPHEMERIS_TYPE":0,"CLASSIFICATION_TYPE":"U","NORAD_CAT_ID":52473,"ELEMENT_SET_NO":999,"REV_AT_EPOCH":21218,"BSTAR":2.1225021e-5,"MEAN_MOTION_DOT":5.0e-7,"MEAN_MOTION_DDOT":0},{"OBJECT_NAME":"DELTA 1 DEB","OBJECT_ID":"1977-118C","EPOCH":"2026-03-09T07:30:01.620864","MEAN_MOTION":13.30512983,"ECCENTRICITY":0.08123752,"INCLINATION":29.055,"RA_OF_ASC_NODE":100.7737,"ARG_OF_PERICENTER":101.0865,"MEAN_ANOMALY":268.2043,"EPHEMERIS_TYPE":0,"CLASSIFICATION_TYPE":"U","NORAD_CAT_ID":10519,"ELEMENT_SET_NO":999,"REV_AT_EPOCH":32297,"BSTAR":0.00016439903,"MEAN_MOTION_DOT":6.17e-6,"MEAN_MOTION_DDOT":0}]
